SL-14 R/B               
1 16792U 86046B   26044.62670038  .00000467  00000+0  51035-4 0  9991
2 16792  82.4806 102.9231 0021868 310.0344  49.8953 14.85566753122837
SL-14 R/B               
1 16882U 86055B   26044.70082269  .00000533  00000+0  58577-4 0  9995
2 16882  82.5233 149.2150 0020102  54.4855  62.2003 14.85617800115806
AJISAI (EGS)            
1 16908U 86061A   26044.95245669 -.00000110  00000+0 -89470-4 0  9992
2 16908  50.0081 166.3395 0011235 225.8353 238.5500 12.44515363465049
COSMOS 1812             
1 17295U 87003A   26044.94134172  .00338394  45557-4  72606-3 0  9993
2 17295  82.4759 222.6418 0002093 305.7418  54.3664 15.98502569140663
SL-14 R/B               
1 17567U 87024B   26044.66888334  .00000471  00000+0  50935-4 0  9996
2 17567  82.5283 115.3416 0017715 345.1544  14.9149 14.86109022 84568
COSMOS 1833             
1 17589U 87027A   26044.93341625 -.00000009  00000+0  21197-4 0  9996
2 17589  70.9222  15.9444 0024904 246.5203 113.3300 14.13057240  6961
SL-16 R/B               
1 17590U 87027B   26044.90530668 -.00000052  00000+0 -20178-5 0  9990
2 17590  71.0045 326.6137 0004770 184.7444 175.3635 14.17162806 11973
SL-14 R/B               
1 17912U 87038B   26044.71883923  .00000504  00000+0  55757-4 0  9994
2 17912  82.5039 319.3847 0017777 242.0292 117.9125 14.85345996 75679
COSMOS 1844             
1 17973U 87041A   26044.56947183  .00000443  00000+0  25497-3 0  9996
2 17973  70.8979  85.0540 0028953  56.5546 303.8337 14.14545321   174
SL-14 R/B               
1 18153U 87055B   26044.90203449  .00000593  00000+0  65429-4 0  9996
2 18153  82.5004  11.4460 0022337  92.0119 268.3655 14.85599233 66404
COSMOS 1867             
1 18187U 87060A   26044.33899929  .00000001  00000+0  38012-4 0  9992
2 18187  65.0118  14.8958 0014161 276.9731  82.9743 14.31499117 16450
SL-14 R/B               
1 18749U 88001B   26044.89568265  .00000549  00000+0  60673-4 0  9994
2 18749  82.5111 217.7388 0017089 320.9484  39.0497 14.85498269 38492
