CCSDS_OMM_VERS = 2.0
CREATION_DATE  = 
ORIGINATOR     = 

OBJECT_NAME    = SL-14 R/B
OBJECT_ID      = 1986-046B
CENTER_NAME    = EARTH
REF_FRAME      = TEME
TIME_SYSTEM    = UTC
MEAN_ELEMENT_THEORY = SGP/SGP4

EPOCH          = 2026-02-13T15:02:26.912832
MEAN_MOTION    = 14.85566753
ECCENTRICITY   = .00218682
INCLINATION    = 82.4806
RA_OF_ASC_NODE = 102.9231
ARG_OF_PERICENTER = 310.0344
MEAN_ANOMALY   = 49.8953

EPHEMERIS_TYPE = 0
CLASSIFICATION_TYPE = U
NORAD_CAT_ID   = 16792
ELEMENT_SET_NO = 999
REV_AT_EPOCH   = 12283
BSTAR          = .51035459E-4
MEAN_MOTION_DOT = .467E-5
MEAN_MOTION_DDOT = 0

CCSDS_OMM_VERS = 2.0
CREATION_DATE  = 
ORIGINATOR     = 

OBJECT_NAME    = SL-14 R/B
OBJECT_ID      = 1986-055B
CENTER_NAME    = EARTH
REF_FRAME      = TEME
TIME_SYSTEM    = UTC
MEAN_ELEMENT_THEORY = SGP/SGP4

EPOCH          = 2026-02-13T16:49:11.080416
MEAN_MOTION    = 14.85617800
ECCENTRICITY   = .00201029
INCLINATION    = 82.5233
RA_OF_ASC_NODE = 149.2150
ARG_OF_PERICENTER = 54.4855
MEAN_ANOMALY   = 62.2003

EPHEMERIS_TYPE = 0
CLASSIFICATION_TYPE = U
NORAD_CAT_ID   = 16882
ELEMENT_SET_NO = 999
REV_AT_EPOCH   = 11580
BSTAR          = .58577167E-4
MEAN_MOTION_DOT = .533E-5
MEAN_MOTION_DDOT = 0

CCSDS_OMM_VERS = 2.0
CREATION_DATE  = 
ORIGINATOR     = 

OBJECT_NAME    = AJISAI (EGS)
OBJECT_ID      = 1986-061A
CENTER_NAME    = EARTH
REF_FRAME      = TEME
TIME_SYSTEM    = UTC
MEAN_ELEMENT_THEORY = SGP/SGP4

EPOCH          = 2026-02-13T22:51:32.258016
MEAN_MOTION    = 12.44515363
ECCENTRICITY   = .00112358
INCLINATION    = 50.0081
RA_OF_ASC_NODE = 166.3395
ARG_OF_PERICENTER = 225.8353
MEAN_ANOMALY   = 238.5500

EPHEMERIS_TYPE = 0
CLASSIFICATION_TYPE = U
NORAD_CAT_ID   = 16908
ELEMENT_SET_NO = 999
REV_AT_EPOCH   = 46504
BSTAR          = -.89470229E-4
MEAN_MOTION_DOT = -.11E-5
MEAN_MOTION_DDOT = 0

CCSDS_OMM_VERS = 2.0
CREATION_DATE  = 
ORIGINATOR     = 

OBJECT_NAME    = COSMOS 1812
OBJECT_ID      = 1987-003A
CENTER_NAME    = EARTH
REF_FRAME      = TEME
TIME_SYSTEM    = UTC
MEAN_ELEMENT_THEORY = SGP/SGP4

EPOCH          = 2026-02-13T22:35:31.924608
MEAN_MOTION    = 15.98502569
ECCENTRICITY   = .00020932
INCLINATION    = 82.4759
RA_OF_ASC_NODE = 222.6418
ARG_OF_PERICENTER = 305.7418
MEAN_ANOMALY   = 54.3664

EPHEMERIS_TYPE = 0
CLASSIFICATION_TYPE = U
NORAD_CAT_ID   = 17295
ELEMENT_SET_NO = 999
REV_AT_EPOCH   = 14066
BSTAR          = .72606428E-3
MEAN_MOTION_DOT = .338394E-2
MEAN_MOTION_DDOT = .45556528E-4

CCSDS_OMM_VERS = 2.0
CREATION_DATE  = 
ORIGINATOR     = 

OBJECT_NAME    = SL-14 R/B
OBJECT_ID      = 1987-024B
CENTER_NAME    = EARTH
REF_FRAME      = TEME
TIME_SYSTEM    = UTC
MEAN_ELEMENT_THEORY = SGP/SGP4

EPOCH          = 2026-02-13T16:03:11.520576
MEAN_MOTION    = 14.86109022
ECCENTRICITY   = .00177151
INCLINATION    = 82.5283
RA_OF_ASC_NODE = 115.3416
ARG_OF_PERICENTER = 345.1544
MEAN_ANOMALY   = 14.9149

EPHEMERIS_TYPE = 0
CLASSIFICATION_TYPE = U
NORAD_CAT_ID   = 17567
ELEMENT_SET_NO = 999
REV_AT_EPOCH   = 8456
BSTAR          = .50935383E-4
MEAN_MOTION_DOT = .471E-5
MEAN_MOTION_DDOT = 0

CCSDS_OMM_VERS = 2.0
CREATION_DATE  = 
ORIGINATOR     = 

OBJECT_NAME    = COSMOS 1833
OBJECT_ID      = 1987-027A
CENTER_NAME    = EARTH
REF_FRAME      = TEME
TIME_SYSTEM    = UTC
MEAN_ELEMENT_THEORY = SGP/SGP4

EPOCH          = 2026-02-13T22:24:07.164000
MEAN_MOTION    = 14.13057240
ECCENTRICITY   = .00249044
INCLINATION    = 70.9222
RA_OF_ASC_NODE = 15.9444
ARG_OF_PERICENTER = 246.5203
MEAN_ANOMALY   = 113.3300

EPHEMERIS_TYPE = 0
CLASSIFICATION_TYPE = U
NORAD_CAT_ID   = 17589
ELEMENT_SET_NO = 999
REV_AT_EPOCH   = 696
BSTAR          = .21196901E-4
MEAN_MOTION_DOT = -.9E-7
MEAN_MOTION_DDOT = 0

CCSDS_OMM_VERS = 2.0
CREATION_DATE  = 
ORIGINATOR     = 

OBJECT_NAME    = SL-16 R/B
OBJECT_ID      = 1987-027B
CENTER_NAME    = EARTH
REF_FRAME      = TEME
TIME_SYSTEM    = UTC
MEAN_ELEMENT_THEORY = SGP/SGP4

EPOCH          = 2026-02-13T21:43:38.497152
MEAN_MOTION    = 14.17162806
ECCENTRICITY   = .00047702
INCLINATION    = 71.0045
RA_OF_ASC_NODE = 326.6137
ARG_OF_PERICENTER = 184.7444
MEAN_ANOMALY   = 175.3635

EPHEMERIS_TYPE = 0
CLASSIFICATION_TYPE = U
NORAD_CAT_ID   = 17590
ELEMENT_SET_NO = 999
REV_AT_EPOCH   = 1197
BSTAR          = -.2017832E-5
MEAN_MOTION_DOT = -.52E-6
MEAN_MOTION_DDOT = 0

CCSDS_OMM_VERS = 2.0
CREATION_DATE  = 
ORIGINATOR     = 

OBJECT_NAME    = SL-14 R/B
OBJECT_ID      = 1987-038B
CENTER_NAME    = EARTH
REF_FRAME      = TEME
TIME_SYSTEM    = UTC
MEAN_ELEMENT_THEORY = SGP/SGP4

EPOCH          = 2026-02-13T17:15:07.709472
MEAN_MOTION    = 14.85345996
ECCENTRICITY   = .00177777
INCLINATION    = 82.5039
RA_OF_ASC_NODE = 319.3847
ARG_OF_PERICENTER = 242.0292
MEAN_ANOMALY   = 117.9125

EPHEMERIS_TYPE = 0
CLASSIFICATION_TYPE = U
NORAD_CAT_ID   = 17912
ELEMENT_SET_NO = 999
REV_AT_EPOCH   = 7567
BSTAR          = .55757163E-4
MEAN_MOTION_DOT = .504E-5
MEAN_MOTION_DDOT = 0

CCSDS_OMM_VERS = 2.0
CREATION_DATE  = 
ORIGINATOR     = 

OBJECT_NAME    = COSMOS 1844
OBJECT_ID      = 1987-041A
CENTER_NAME    = EARTH
REF_FRAME      = TEME
TIME_SYSTEM    = UTC
MEAN_ELEMENT_THEORY = SGP/SGP4

EPOCH          = 2026-02-13T13:40:02.366112
MEAN_MOTION    = 14.14545321
ECCENTRICITY   = .0028953
INCLINATION    = 70.8979
RA_OF_ASC_NODE = 85.0540
ARG_OF_PERICENTER = 56.5546
MEAN_ANOMALY   = 303.8337

EPHEMERIS_TYPE = 0
CLASSIFICATION_TYPE = U
NORAD_CAT_ID   = 17973
ELEMENT_SET_NO = 999
REV_AT_EPOCH   = 17
BSTAR          = .25497486E-3
MEAN_MOTION_DOT = .443E-5
MEAN_MOTION_DDOT = 0

CCSDS_OMM_VERS = 2.0
CREATION_DATE  = 
ORIGINATOR     = 

OBJECT_NAME    = SL-14 R/B
OBJECT_ID      = 1987-055B
CENTER_NAME    = EARTH
REF_FRAME      = TEME
TIME_SYSTEM    = UTC
MEAN_ELEMENT_THEORY = SGP/SGP4

EPOCH          = 2026-02-13T21:38:55.779936
MEAN_MOTION    = 14.85599233
ECCENTRICITY   = .00223374
INCLINATION    = 82.5004
RA_OF_ASC_NODE = 11.4460
ARG_OF_PERICENTER = 92.0119
MEAN_ANOMALY   = 268.3655

EPHEMERIS_TYPE = 0
CLASSIFICATION_TYPE = U
NORAD_CAT_ID   = 18153
ELEMENT_SET_NO = 999
REV_AT_EPOCH   = 6640
BSTAR          = .65428922E-4
MEAN_MOTION_DOT = .593E-5
MEAN_MOTION_DDOT = 0

CCSDS_OMM_VERS = 2.0
CREATION_DATE  = 
ORIGINATOR     = 

OBJECT_NAME    = COSMOS 1867
OBJECT_ID      = 1987-060A
CENTER_NAME    = EARTH
REF_FRAME      = TEME
TIME_SYSTEM    = UTC
MEAN_ELEMENT_THEORY = SGP/SGP4

EPOCH          = 2026-02-13T08:08:09.538656
MEAN_MOTION    = 14.31499117
ECCENTRICITY   = .00141611
INCLINATION    = 65.0118
RA_OF_ASC_NODE = 14.8958
ARG_OF_PERICENTER = 276.9731
MEAN_ANOMALY   = 82.9743

EPHEMERIS_TYPE = 0
CLASSIFICATION_TYPE = U
NORAD_CAT_ID   = 18187
ELEMENT_SET_NO = 999
REV_AT_EPOCH   = 1645
BSTAR          = .38011613E-4
MEAN_MOTION_DOT = .1E-7
MEAN_MOTION_DDOT = 0

CCSDS_OMM_VERS = 2.0
CREATION_DATE  = 
ORIGINATOR     = 

OBJECT_NAME    = SL-14 R/B
OBJECT_ID      = 1988-001B
CENTER_NAME    = EARTH
REF_FRAME      = TEME
TIME_SYSTEM    = UTC
MEAN_ELEMENT_THEORY = SGP/SGP4

EPOCH          = 2026-02-13T21:29:46.980960
MEAN_MOTION    = 14.85498269
ECCENTRICITY   = .00170897
INCLINATION    = 82.5111
RA_OF_ASC_NODE = 217.7388
ARG_OF_PERICENTER = 320.9484
MEAN_ANOMALY   = 39.0497

EPHEMERIS_TYPE = 0
CLASSIFICATION_TYPE = U
NORAD_CAT_ID   = 18749
ELEMENT_SET_NO = 999
REV_AT_EPOCH   = 3849
BSTAR          = .60672955E-4
MEAN_MOTION_DOT = .549E-5
MEAN_MOTION_DDOT = 0

